1 43477U 18047B   22301.81883617  .00002489  00000-0  99464-4 0  9994
2 43477  88.9949  20.4448 0013872 190.4848 169.6112 15.24634411246730
